#dP2020  2 27  0  0  0.00000000     289 ORBIT ITRF  BHN ESOC                    
## 2094 345600.00000000   300.00000000 58906 0.0000000000000                    
+  108   G18G14G13G28G21G11G22G07G05G20G31G17G15G16G29G12G19                    
+        G23G02G25G01G30G24G27G06G09G03G32G26G08G10G04R09R20                    
+        R19R13R01R22R23R16R08R03R07R02R17R14R11R18R21R05R15                    
+        R12R04E11E12E19E18E14E26E24E30E08E09E01E02E07E03E04                    
+        E05E21E25E27E31E36E13E15E33C11C12C14C19C20C27C28C22                    
+        C21C29C30C23C24C26C25C32C33C35C34C36C37C06C07C08C09                    
+        C10C13C16J01J02J03  0  0  0  0  0  0  0  0  0  0  0                    
++         5  5  4  5  5  5  5  5  5  5  5  5  5  5  5  5  5                    
++         5  5  5  5  4  5  5  5  4  5  5  5  5  5  5  5  6                    
++         6  6  7  6  5  6  6  6  5  5  5  5  5  5  5  5  6                    
++         6  5  5  5  5  5  5  5  5  5  5  5  5  5  5  5  5                    
++         5  5  5  5  5  5  5  5  5  5  6  6  6  6  6  5  6                    
++         5  6  6  5  6  6  5  6  6  6  5  7  5  6  6  7  6                    
++         5  7  7  6  6  6  0  0  0  0  0  0  0  0  0  0  0                    
%c M  cc GPS ccc cccc cccc cccc cccc ccccc ccccc ccccc ccccc                    
%c cc cc ccc ccc cccc cccc cccc cccc ccccc ccccc ccccc ccccc                    
%f  0.0000000  0.000000000  0.00000000000  0.000000000000000                    
%f  0.0000000  0.000000000  0.00000000000  0.000000000000000                    
%i    0    0    0    0      0      0      0      0         0                    
%i    0    0    0    0      0      0      0      0         0                    
/* CCCCCCCCCCCCCCCCCCCCCCCCCCCCCCCCCCCCCCCCCCCCCCCCCCCCCCCCCCCCCCCCCCCCCCCCCCCCC
/* CCCCCCCCCCCCCCCCCCCCCCCCCCCCCCCCCCCCCCCCCCCCCCCCCCCCCCCCCCCCCCCCCCCCCCCCCCCCC
/* CCCCCCCCCCCCCCCCCCCCCCCCCCCCCCCCCCCCCCCCCCCCCCCCCCCCCCCCCCCCCCCCCCCCCCCCCCCCC
/* PCV:IGS        OL/AL:EOT11A   NONE     YN ORB:CoN CLK:CoN                    
*  2020  2 27  5 15  0.00000000                                                 
PG18   5501.237080  15405.820087 -21446.942196      4.584532                    
PG14 -18574.367793  18569.389272  -2859.501300    -29.856486                    
PG13  11016.817401 -21920.063121 -10195.553003     -9.860468                    
PG28  14366.562948  -2794.738043 -21570.585187    736.590384                    
PG21 -26010.918821  -3647.213251   3620.192114    -35.362177                    
PG11   2780.055993  16461.022417 -21177.597855   -349.572831                    
PG22   9861.505531  24358.249935  -4045.917126   -785.128143                    
PG07  25843.121346   6043.835684   4164.055149   -223.566195                    
PG05    865.907501 -22057.087238  14493.209347     -8.239970                    
PG20 -19327.673739  -8401.054685 -16371.311154    527.875658                    
PG31 -19545.843766   8720.193206  15979.590675    -25.880550                    
PG17  20135.717181 -11860.488148 -12149.026220    222.894708                    
PG15   -961.900981 -21524.545761 -15588.603058   -248.753627                    
PG16  -2762.179798  21795.875627  14380.550001   -128.956880                    
PG29 -13376.728487  -6642.271535  21930.057774    -43.103496                    
PG12 -10000.599421 -24647.227496   1499.506144    146.771071                    
PG19  20032.414475 -16563.452451  -5758.046079   -193.175710                    
PG23   8977.306151  13866.784895  21093.077588   -133.534490                    
PG02   9972.828157 -14207.709614  20724.775595   -412.161918                    
PG25 -16460.233404 -17266.972499  11727.318163    -11.548174                    
PG01  14317.803553  13791.481948 -17982.285090   -308.117723                    
PG30  25634.535407  -1610.944631  -7135.671829   -162.745319                    
PG24 -12710.866645 -14375.049632 -18701.689782     -9.608657                    
PG27 -11440.308311  22959.936151  -6291.824779   -222.885642                    
PG06  21069.429552  -7536.563515  14396.740479   -218.301204                    
PG09  15176.937948   4665.852841  21240.641510   -164.640154                    
PG03  13261.243683  22663.053447   4267.189264   -104.256512                    
PG32 -19700.459692  12990.873772 -11978.871495    222.728833                    
PG26  -8834.198718  14872.318970  20064.938742    156.615953                    
PG08  -2369.910408  21476.256289 -15249.084142    -25.187853                    
PG10 -15372.220131   2094.465411 -21501.881751   -259.031451                    
PG04   6928.924399  14883.046230  20882.255553    -54.598278                    
PR09    545.521506  13443.687992  21694.100263    118.942331                    
PR20 -16416.693507  13558.526217 -13995.246200   -405.182664                    
PR19 -23855.002260   7455.108631   5101.264091    -81.104914                    
PR13   2575.774554 -11369.893646 -22710.073978    -35.349594                    
PR01  11186.218245  -6371.607366  22019.740435     57.685089                    
PR22  18927.393545    128.389494 -17156.428541    -15.659943                    
PR23  23053.203121 -10827.402392   1475.819505    289.003680                    
PR16 -17166.120242   -737.485152  18878.352738     -1.756141                    
PR08   9310.339980   9994.001859  21591.793636    -50.761817                    
PR03  -2285.104558 -23486.552149  -9709.397680     10.611809                    
PR07   2604.615161  23158.591292  10358.194759    -33.729821                    
PR02   6150.537985 -23555.183043   7749.644547    413.962329                    
PR17  -1207.986548 -10965.483311  23010.946898    304.422274                    
PR14 -13308.995013 -17338.048563 -13138.257926     48.534525                    
PR11  21642.816363  12719.228853  -4636.006922    -14.890483                    
PR18 -16906.692623  -1893.407258  19001.291560     26.526393                    
PR21   2015.450859  10554.288554 -23129.144169   -107.634272                    
PR05 -10906.224010   9093.870856 -21174.705495     45.727275                    
PR15 -21467.337291 -13247.164775   3830.560589    105.987638                    
PR12  17219.490173   1421.247591 -18732.000862    109.224079                    
PR04  -9183.833128  -9982.055307 -21578.124444     40.104186                    
PE11  -7910.906436 -14864.223443  24344.579110   1459.594336                    
PE12  14764.435164 -16223.380828  19894.775218   5931.242262                    
PE19  18799.271057 -11592.432755  19712.029256     -1.361199                    
PE18  11972.828515  17407.967957 -24848.037627  -1017.947840                    
PE14  -6308.457719 -14529.319837  17214.115089   -920.295186                    
PE26  25556.498425   4753.235679 -14147.693330   3482.398497                    
PE24 -13651.485232 -24929.877371  -8329.016734   5588.869803                    
PE30  -3371.629594  19167.265837  22284.789185   4110.842071                    
PE08 -11044.796692  27402.042618  -1916.659701   6214.532406                    
PE09  -2974.390839 -24859.714364 -15776.856623   6143.167150                    
PE01  18216.312630  -2361.192223 -23212.694038   -803.357292                    
PE02 -18187.338253   2411.223100  23227.916047    115.569221                    
PE07   2831.311463  24968.312197  15655.402924   -346.640748                    
PE03 -18751.121530  13681.619943 -18376.491854   -270.784612                    
PE04  11363.319963 -27252.611819   2100.865330   -474.051795                    
PE05 -15225.165109  -8081.251602 -24063.555810   -401.919807                    
PE21  22683.059072  15729.754907 -10685.537578   -584.928615                    
PE25 -22671.903923 -15827.247022  10577.890733   -505.097906                    
PE27  13860.685310  24814.814723   8241.917983    273.764530                    
PE31   3051.620033 -19292.838755 -22239.497142   -471.841406                    
PE36 -25373.701321  -4711.495767  14501.519646    593.068185                    
PE13   7706.422006  14821.195700 -24424.025323    398.732712                    
PE15 -14487.546283  16250.756655 -20036.505714    875.872549                    
PE33  28193.155065  -8155.686829   3906.422389   -470.008176                    
PC11 -12171.263286  20074.961568 -15058.471050   -207.085360                    
PC12 -23775.135143  14449.413298   2354.732187    324.140534                    
PC14  -3362.130558  26487.008321  -8179.304663    188.282509                    
PC19  -3015.400494 -27727.203846   -674.747197    336.631442                    
PC20   8809.068431 -21515.707266  15433.324055   -775.611738                    
PC27  24620.812665  -7456.147051 -10855.511504    285.539548                    
PC28  15114.919766   8173.053843 -21981.021862    276.481174                    
PC22 -13299.698506 -17908.773536 -16745.054762   -896.649436                    
PC21 -15783.853021   2293.935537 -22880.131999   -116.618886                    
PC29   2424.678108 -19076.295560  20223.229258    193.293067                    
PC30  19136.845817 -19315.372437   6341.742712    278.192794                    
PC23  22849.998585  15144.720705   5208.076263   -903.274098                    
PC24 -12953.311242  11149.450413  22053.177945   -929.195117                    
PC26 -24993.267090  -1704.766710  12323.687894    586.351175                    
PC25   7950.232006  18557.586858  19250.710386   -529.897931                    
PC32  15798.418928  -2401.960947  22892.764505   -880.399310                    
PC33   3141.134632  27729.581448    656.219151   -938.150401                    
PC35 -15278.083762  -7844.391135  21992.095421   -919.420164                    
PC34 -18900.803358  19377.350668  -6726.398045   -503.225634                    
PC36  -7315.080548 -18709.115468 -19351.310876   -826.007726                    
PC37  25115.879359   2745.545887 -11817.117771   -870.536906                    
PC06 -21402.033967  35326.767243   7591.698604    242.684031                    
PC07  -7935.927781  32140.943416  26548.206893   -102.489432                    
PC08 -18262.068097  17849.638552 -33528.474250   -133.325481                    
PC09 -11741.856700  35121.485662  20048.614843    362.887910                    
PC10   3413.254262  38514.859405  17457.528273   -700.951870                    
PC13  -2640.674132  22864.921496 -35227.004980    291.064091                    
PC16 -18887.603681  36087.929584  10568.282422   -755.925646                    
PJ01 -18532.575127  31490.928804 -16437.511652   -326.167444                    
PJ02 -26439.609428  20339.813666  30618.628076     -1.558496                    
PJ03 -34551.118650  24253.448165   4503.043596     -0.741090                    
EOF                                                                             
